IRIDIUM 112             
1 41925U 17003J   25128.05752679  .00000121  00000+0  36269-4 0  9994
2 41925  86.3950 257.5392 0002094  91.7349 268.4087 14.34217454435232
IRIDIUM 111             
1 41926U 17003K   25127.83553573  .00000326  00000+0  10939-3 0  9994
2 41926  86.3951 257.6935 0002171  99.0063 261.1379 14.34218741435153
IRIDIUM 113             
1 42803U 17039A   25128.09457305  .00000078  00000+0  20798-4 0  9992
2 42803  86.3948 131.5159 0002077  86.7031 273.4402 14.34218059413123
IRIDIUM 123             
1 42804U 17039B   25127.85697899 -.00000037  00000+0 -20309-4 0  9995
2 42804  86.3997 163.0603 0002306 102.2614 257.8840 14.34217550411853
IRIDIUM 120             
1 42805U 17039C   25127.73938461  .00000289  00000+0  96168-4 0  9999
2 42805  86.3937 131.4991 0002645  95.0705 265.0793 14.34217493413062
IRIDIUM 115             
1 42806U 17039D   25127.94914897  .00000234  00000+0  63418-4 0  9992
2 42806  86.4475 131.4847 0002502 107.9034 252.2440 14.43280521415815
IRIDIUM 118             
1 42807U 17039E   25127.60961816  .00000025  00000+0  19805-5 0  9999
2 42807  86.3997 163.1634 0002173  91.0095 269.1350 14.34217385411815
IRIDIUM 117             
1 42808U 17039F   25127.83795107 -.00000042  00000+0 -21923-4 0  9997
2 42808  86.3995 163.0296 0002072 100.3154 259.8275 14.34217375411872
